NORAD_CAT_ID,OBJECT_NAME,OBJECT_TYPE,EPOCH,MEAN_MOTION,ECCENTRICITY,INCLINATION,RA_OF_ASC_NODE,ARG_OF_PERICENTER,MEAN_ANOMALY,BSTAR,MEAN_MOTION_DOT,MEAN_MOTION_DDOT,TLE_LINE0,TLE_LINE1,TLE_LINE2,SEMIMAJOR_AXIS,PERIOD,APOGEE,PERIGEE,DECAYED
51809.0,STARLINK-3607,PAYLOAD,2022-03-30 12:00:00,15.73200194,0.0001215,53.2175,340.9698,96.2352,330.5193,0.00010066,0.0001353,0.0,0 STARLINK-3607,1 51809U 22017AT  22089.50001157  .00013530  00000-0  10066-3 0  9993,2 51809  53.2175 340.9698 0001215  96.2352 330.5193 15.73200194  6409,6727.895,91.533,350.577,348.94199999999995,0.0
51809.0,STARLINK-3607,PAYLOAD,2022-03-30 14:00:01,15.73214293,0.0001296,53.2172,340.5571,97.8897,81.1606,-0.00014225,-0.00020547,0.0,0 STARLINK-3607,1 51809U 22017AT  22089.58335648 -.00020547  00000-0 -14225-3 0  9995,2 51809  53.2172 340.5571 0001296  97.8897  81.1606 15.73214293  3660,6727.854,91.532,350.591,348.847,0.0
51809.0,STARLINK-3607,PAYLOAD,2022-03-30 22:00:00,15.73177436,0.0001435,53.217,338.9094,90.9403,176.9878,0.00022786,0.00031447,0.0,0 STARLINK-3607,1 51809U 22017AT  22089.91667824  .00031447  00000-0  22786-3 0  9996,2 51809  53.2170 338.9094 0001435  90.9403 176.9878 15.73177436  3729,6727.96,91.534,350.79,348.8590000000001,0.0
51809.0,STARLINK-3607,PAYLOAD,2022-03-31 06:00:00,15.73220001,0.0001195,53.2163,337.2603,89.3681,267.4734,-0.00028317,-0.00040205,0.0,0 STARLINK-3607,1 51809U 22017AT  22090.25001157 -.00040205  00000-0 -28317-3 0  9996,2 51809  53.2163 337.2603 0001195  89.3681 267.4734 15.73220001  6527,6727.8380000000025,91.532,350.50699999999995,348.899,0.0
51809.0,STARLINK-3607,PAYLOAD,2022-03-31 14:00:01,15.73197502,9.83e-05,53.2164,335.6088,107.4986,338.2944,0.00013864,0.00018879,0.0,0 STARLINK-3607,1 51809U 22017AT  22090.58334491  .00018879  00000-0  13864-3 0  9993,2 51809  53.2164 335.6088 0000983 107.4986 338.2944 15.73197502  3695,6727.901999999999,91.533,350.42900000000014,349.106,0.0
51809.0,STARLINK-3607,PAYLOAD,2022-03-31 22:00:00,15.73209321,8.63e-05,53.2166,333.9611,95.6507,79.081,0.00041656,0.00058271,0.0,0 STARLINK-3607,1 51809U 22017AT  22090.91667824  .00058271  00000-0  41656-3 0  9999,2 51809  53.2166 333.9611 0000863  95.6507  79.0810 15.73209321  6625,6727.869000000002,91.533,350.314,349.153,0.0
51809.0,STARLINK-3607,PAYLOAD,2022-04-01 14:00:01,15.73227899,0.0001051,53.2163,330.6601,103.9869,248.7408,-0.00015636,-0.00022531,0.0,0 STARLINK-3607,1 51809U 22017AT  22091.58334491 -.00022531  00000-0 -15636-3 0  9995,2 51809  53.2163 330.6601 0001051 103.9869 248.7408 15.73227899  6739,6727.816,91.532,350.38800000000015,348.974,0.0
51809.0,STARLINK-3607,PAYLOAD,2022-04-01 22:00:00,15.73226381,8.39e-05,53.2159,329.0126,94.1377,347.5622,-0.00076917,-0.00107316,0.0,0 STARLINK-3607,1 51809U 22017AT  22091.91667824 -.00107316  00000-0 -76917-3 0  9995,2 51809  53.2159 329.0126 0000839  94.1377 347.5622 15.73226381  3677,6727.82,91.532,350.249,349.12,0.0
51809.0,STARLINK-3607,PAYLOAD,2022-04-02 06:00:00,15.73145475,7.57e-05,53.2154,327.3628,92.6446,77.9708,0.00026335,0.00036413,0.0,0 STARLINK-3607,1 51809U 22017AT  22092.25001157  .00036413  00000-0  26335-3 0  9990,2 51809  53.2154 327.3628 0000757  92.6446  77.9708 15.73145475  6833,6728.051,91.536,350.425,349.406,0.0
51809.0,STARLINK-3607,PAYLOAD,2022-04-02 22:00:01,15.73188953,9.44e-05,53.2156,324.0639,95.9147,252.5724,-0.00066201,-0.00092466,0.0,0 STARLINK-3607,1 51809U 22017AT  22092.91668981 -.00092466  00000-0 -66201-3 0  9995,2 51809  53.2156 324.0639 0000944  95.9147 252.5724 15.73188953  3703,6727.927,91.534,350.427,349.157,0.0
51809.0,STARLINK-3607,PAYLOAD,2022-04-03 04:00:00,15.73114169,8.45e-05,53.2154,322.8272,89.3384,235.7399,9.9411e-05,0.00013304,0.0,0 STARLINK-3607,1 51809U 22017AT  22093.16667824  .00013304  00000-0  99411-4 0  9990,2 51809  53.2154 322.8272 0000845  89.3384 235.7399 15.73114169  6982,6728.14,91.538,350.5730000000001,349.436,0.0
51809.0,STARLINK-3607,PAYLOAD,2022-04-03 22:00:00,15.73102927,0.0001109,53.2152,319.116,89.1582,165.8208,0.00049288,0.00068833,0.0,0 STARLINK-3607,1 51809U 22017AT  22093.91667824  .00068833  00000-0  49288-3 0  9996,2 51809  53.2152 319.1160 0001109  89.1582 165.8208 15.73102927  3693,6728.172,91.539,350.783,349.291,0.0
51809.0,STARLINK-3607,PAYLOAD,2022-04-04 04:00:00,15.73118891,8.62e-05,53.2144,317.8787,91.0518,140.5595,0.0019443,0.00280594,0.0,0 STARLINK-3607,1 51809U 22017AT  22094.16667824  .00280594  00000-0  19443-2 0  9993,2 51809  53.2144 317.8787 0000862  91.0518 140.5595 15.73118891  7139,6728.126,91.538,350.571,349.411,0.0
51809.0,STARLINK-3607,PAYLOAD,2022-04-04 14:00:01,15.73319225,9.67e-05,53.2149,315.8146,107.3074,325.5222,-0.00049948,-0.00070488,0.0,0 STARLINK-3607,1 51809U 22017AT  22094.58334491 -.00070488  00000-0 -49948-3 0  9995,2 51809  53.2149 315.8146 0000967 107.3074 325.5222 15.73319225  7209,6727.555,91.526,350.071,348.77,0.0
51809.0,STARLINK-3607,PAYLOAD,2022-04-04 22:00:00,15.73285729,0.0001027,53.215,314.1667,91.6188,70.2951,-0.00034899,-0.00049489,0.0,0 STARLINK-3607,1 51809U 22017AT  22094.91667824 -.00049489  00000-0 -34899-3 0  9997,2 51809  53.2150 314.1667 0001027  91.6188  70.2951 15.73285729  3705,6727.651,91.528,350.207,348.825,0.0
51809.0,STARLINK-3607,PAYLOAD,2022-04-05 00:00:00,15.73254422,0.0001022,53.2152,313.7547,89.1616,185.0146,6.812100000000001e-05,8.973e-05,0.0,0 STARLINK-3607,1 51809U 22017AT  22095.00001157  .00008973  00000-0  68121-4 0  9996,2 51809  53.2152 313.7547 0001022  89.1616 185.0146 15.73254422  7264,6727.74,91.53,350.293,348.917,0.0
51809.0,STARLINK-3607,PAYLOAD,2022-04-05 06:00:00,15.73270431,9.43e-05,53.2149,312.5163,93.904,156.9892,-0.00071808,-0.001005,0.0,0 STARLINK-3607,1 51809U 22017AT  22095.25001157 -.00100500  00000-0 -71808-3 0  9999,2 51809  53.2149 312.5163 0000943  93.9040 156.9892 15.73270431  7304,6727.694,91.529,350.194,348.925,0.0
51809.0,STARLINK-3607,PAYLOAD,2022-04-05 14:00:01,15.73206789,0.0001036,53.2152,310.8653,102.9634,236.9565,-0.00056373,-0.00079017,0.0,0 STARLINK-3607,1 51809U 22017AT  22095.58335648 -.00079017  00000-0 -56373-3 0  9998,2 51809  53.2152 310.8653 0001036 102.9634 236.9565 15.73206789  3708,6727.876,91.533,350.43800000000016,349.0440000000001,0.0
51809.0,STARLINK-3607,PAYLOAD,2022-04-05 22:00:00,15.73135865,9.46e-05,53.2148,309.218,88.7453,340.0313,-0.00042805,-0.00060099,0.0,0 STARLINK-3607,1 51809U 22017AT  22095.91667824 -.00060099  00000-0 -42805-3 0  9994,2 51809  53.2148 309.2180 0000946  88.7453 340.0313 15.73135865  3703,6728.078,91.537,350.58,349.307,0.0
51809.0,STARLINK-3607,PAYLOAD,2022-04-06 06:00:02,15.73119288,7.829999999999999e-05,53.2143,307.5675,94.0984,63.5752,0.00020501,0.00028149,0.0,0 STARLINK-3607,1 51809U 22017AT  22096.25002315  .00028149  00000-0  20501-3 0  9997,2 51809  53.2143 307.5675 0000783  94.0984  63.5752 15.73119288  7468,6728.125,91.538,350.517,349.463,0.0
51809.0,STARLINK-3607,PAYLOAD,2022-04-06 14:00:01,15.73109246,9.13e-05,53.2147,305.9171,105.0847,141.3602,0.00131,0.00186645,0.0,0 STARLINK-3607,1 51809U 22017AT  22096.58334491  .00186645  00000-0  13100-2 0  9998,2 51809  53.2147 305.9171 0000913 105.0847 141.3602 15.73109246  3706,6728.154,91.538,350.6330000000001,349.405,0.0
51809.0,STARLINK-3607,PAYLOAD,2022-04-06 22:00:00,15.73258142,0.0001118,53.2149,304.2697,87.2627,248.0743,-0.00024267,-0.00034621,0.0,0 STARLINK-3607,1 51809U 22017AT  22096.91667824 -.00034621  00000-0 -24267-3 0  9999,2 51809  53.2149 304.2697 0001118  87.2627 248.0743 15.73258142  7578,6727.729,91.53,350.347,348.842,0.0
51809.0,STARLINK-3607,PAYLOAD,2022-04-07 04:00:00,15.73271182,0.0001137,53.2147,303.0319,85.5734,226.508,-0.00030221,-0.00042945,0.0,0 STARLINK-3607,1 51809U 22017AT  22097.16667824 -.00042945  00000-0 -30221-3 0  9992,2 51809  53.2147 303.0319 0001137  85.5734 226.5080 15.73271182  7614,6727.691999999999,91.529,350.32199999999995,348.792,0.0
51809.0,STARLINK-3607,PAYLOAD,2022-04-07 14:00:01,15.73239095,0.0001236,53.215,300.9684,96.6653,56.6481,-0.00036642,-0.00051814,0.0,0 STARLINK-3607,1 51809U 22017AT  22097.58334491 -.00051814  00000-0 -36642-3 0  9997,2 51809  53.2150 300.9684 0001236  96.6653  56.6481 15.73239095  3702,6727.784000000002,91.531,350.48,348.81699999999995,0.0
51809.0,STARLINK-3607,PAYLOAD,2022-04-07 22:00:00,15.73211737,0.0001002,53.2147,299.3209,79.6948,162.6054,-8.1472e-05,-0.00012043,0.0,0 STARLINK-3607,1 51809U 22017AT  22097.91667824 -.00012043  00000-0 -81472-4 0  9996,2 51809  53.2147 299.3209 0001002  79.6948 162.6054 15.73211737  3685,6727.861999999999,91.532,350.401,349.05300000000005,0.0
51809.0,STARLINK-3607,PAYLOAD,2022-04-08 06:00:00,15.73233161,8.8e-05,53.2142,297.6699,88.8729,242.3688,-0.00046304,-0.00065192,0.0,0 STARLINK-3607,1 51809U 22017AT  22098.25001157 -.00065192  00000-0 -46304-3 0  9992,2 51809  53.2142 297.6699 0000880  88.8729 242.3688 15.73233161  7785,6727.801,91.531,350.2580000000001,349.074,0.0
51809.0,STARLINK-3607,PAYLOAD,2022-04-08 14:00:03,15.73436701,0.0001048,53.2154,296.0098,91.8997,328.3848,-0.0043585,-0.00577872,0.0,0 STARLINK-3607,1 51809U 22017AT  22098.58336806 -.00577872  00000-0 -43585-2 0  9990,2 51809  53.2154 296.0098 0001048  91.8997 328.3848 15.73436701  3708,6727.22,91.519,349.79,348.38,0.0
51809.0,STARLINK-3607,PAYLOAD,2022-04-08 22:00:00,15.73193105,0.0001095999999999,53.2147,294.3723,79.9054,69.2241,7.8333e-05,0.00010384,0.0,0 STARLINK-3607,1 51809U 22017AT  22098.91667824  .00010384  00000-0  78333-4 0  9993,2 51809  53.2147 294.3723 0001096  79.9054  69.2241 15.73193105  7889,6727.915,91.534,350.517,349.042,0.0
51809.0,STARLINK-3607,PAYLOAD,2022-04-09 14:00:01,15.73162762,0.0001219,53.2147,291.0712,88.1095,238.87,-0.00023627,-0.00033593,0.0,0 STARLINK-3607,1 51809U 22017AT  22099.58334491 -.00033593  00000-0 -23627-3 0  9992,2 51809  53.2147 291.0712 0001219  88.1095 238.8700 15.73162762  3701,6728.001,91.535,350.686,349.046,0.0
